#aV2007  8 25  0  0   .00000000      96 DD+AD WGS84 FIT  NGA
## 1441 518400.00000000   900.00000000 54337  .0000000000000
+   31     1  2  3  4  5  6  7  8  9 10 11 12 13 14 16 17 18
+         19 20 21 22 23 24 25 26 27 28 29 30 31 32  0  0  0
+          0  0  0  0  0  0  0  0  0  0  0  0  0  0  0  0  0
+          0  0  0  0  0  0  0  0  0  0  0  0  0  0  0  0  0
+          0  0  0  0  0  0  0  0  0  0  0  0  0  0  0  0  0
++         0  0  0  0  0  0  0  0  0  0  0  0  0  0  0  0  0
++         0  0  0  0  0  0  0  0  0  0  0  0  0  0  0  0  0
++         0  0  0  0  0  0  0  0  0  0  0  0  0  0  0  0  0
++         0  0  0  0  0  0  0  0  0  0  0  0  0  0  0  0  0
++         0  0  0  0  0  0  0  0  0  0  0  0  0  0  0  0  0
%c cc cc ccc ccc cccc cccc cccc cccc ccccc ccccc ccccc ccccc
%c cc cc ccc ccc cccc cccc cccc cccc ccccc ccccc ccccc ccccc
%f  0.0000000  0.000000000  0.00000000000  0.000000000000000
%f  0.0000000  0.000000000  0.00000000000  0.000000000000000
%i    0    0    0    0      0      0      0      0         0
%i    0    0    0    0      0      0      0      0         0
/*      NGA, ST. LOUIS,MO.                                  
/*   EPHEMERIS COMPUTED FROM  3 DAYS OF DATA                
/* CCCCCCCCCCCCCCCCCCCCCCCCCCCCCCCCCCCCCCCCCCCCCCCCCCCCCCCCC
/* CCCCCCCCCCCCCCCCCCCCCCCCCCCCCCCCCCCCCCCCCCCCCCCCCCCCCCCCC
*  2007  8 25 17 15   .00000000                                                 
P  1  15862.348572 -20617.570714   5351.642775    148.336279                    
V  1   5933.489575  -3275.117861 -31503.688619       .023866                    
P  2  -6585.468520  14253.529555  21198.406142    131.672886                    
V  2 -26738.313760  -6318.747082  -4319.873385       .027917                    
P  3   7341.710945 -23152.733517 -10553.003787    106.439307                    
V  3  10817.166924  -8495.140372  27063.315746       .052979                    
P  4 -19091.651578   7995.902014  16770.388509      -.748077                    
V  4 -20344.072223  -6700.675268 -19527.778960      -.025089                    
P  5  15833.429834  18691.835731  10199.404066    326.897348                    
V  5   2356.550952  13428.103741 -27438.671713       .371572                    
P  6  17486.301736   2310.688482  20055.399824    246.662398                    
V  6 -15278.034413  20011.853517  11086.476114       .006946                    
P  7  18495.528000   -154.219190  19420.986583    -35.580130                    
V  7 -13879.133111  19647.915746  13571.293889     -1.057012                    
P  8 -24571.930358    814.694960 -10732.730261   -120.243315                    
V  8 -12402.922442  -5003.210905  27870.162228      -.014704                    
P  9  15241.079724  14581.496103 -16872.553778     84.787913                    
V  9 -20110.579763  -2202.448488 -20641.734543       .016577                    
P 10   -574.635229  24146.144964  10561.598514    102.563900                    
V 10  -6245.147825 -12434.068448  28094.501269      -.716142                    
P 11 -17894.078030 -12926.897845 -15086.847259     22.720533                    
V 11  19195.067328  -2346.096137 -20607.074597       .006040                    
P 12  11525.979758  23318.680601   5641.468642    -53.907609                    
V 12   -356.810994   7485.663479 -30670.093915      -.012811                    
P 13 -16745.502014  -1894.526580  20414.429030    201.179424                    
V 13  17805.050059 -19078.030301  12791.701224       .030591                    
P 14  20760.287668 -14700.517015  -7378.821176     37.543600                    
V 14  -5173.404145   8174.058933 -30575.545130       .021849                    
P 16   4655.439978 -21231.657945  15229.435923    171.614715                    
V 16   7474.478024  17865.202802  22891.518574       .023695                    
P 17 -21025.565613  13275.500202  -9120.554267     56.680649                    
V 17   5943.364138 -10379.720551 -28882.070504      -.013372                    
P 18  16405.783893   7144.280076 -19580.783024   -239.101375                    
V 18   5509.973174  24540.060013  13115.234098       .016221                    
P 19   -157.030714 -18392.558970 -19011.169397     60.756249                    
V 19  18642.275887 -15822.791381  15211.514951       .026121                    
P 20 -13519.915908 -21132.085907   8671.976852    -28.630087                    
V 20   -805.495483 -11487.724753 -28875.435251      -.005521                    
P 21  26232.136889   5736.140858  -1158.830026     78.559505                    
V 21    830.596762   3329.166641  30819.427341      -.001143                    
P 22  13618.238795  -7899.323798 -21227.873878    195.588088                    
V 22   7545.595941  26317.748380  -4959.203479       .011758                    
P 23  -9972.592897 -11208.389297  21827.645497    194.582441                    
V 23  19014.323404 -20401.243518  -2002.509997       .037652                    
P 24  20967.818328  12923.850258   9751.498448     25.494919                    
V 24 -12524.327728   -466.202068  28410.787014       .027544                    
P 25 -24611.810865  -7597.519522   6507.499051    419.217418                    
V 25   8107.133916  -1801.693871  30394.059116       .122317                    
P 26  -3075.072463  19638.986917 -17774.196287      3.952279                    
V 26 -16234.030339  14652.267562  20030.463109       .138985                    
P 27 -26376.885781  -3860.716678   -386.011997    130.994447                    
V 27   -859.815081  -2687.956409  31703.545044       .023172                    
P 28 -14580.480567   3634.732804 -21562.802448     -5.660131                    
V 28  -7952.270200 -27047.587718    466.640090      -.008016                    
P 29  -7207.838535  21225.182328 -13733.643990      5.287271                    
V 29 -13420.278247  11955.636882  25531.228452       .001980                    
P 30  16579.265960  13891.762578  15164.296455     43.605405                    
V 30   4510.284230  19443.166673 -22164.103846       .012737                    
P 31  15802.110023 -10116.647223  19022.213597     11.698036                    
V 31  22910.952910   6241.570240 -15806.803195      -.012469                    
P 32   6914.930857 -19483.311934 -16278.790926     28.828863                    
V 32   6406.699334  20569.761597 -21162.196882       .179588                    
EOF
